$$SOE
2460147.500000000, A.D. 2023-Jul-22 00:00:00.0000, -1.136648590135320E+08, -4.608151164686506E+08, 1.117211752587933E+08,
2460154.500000000, A.D. 2023-Jul-29 00:00:00.0000, -1.040201285720217E+08, -4.612330324099933E+08, 1.105246773087740E+08,
2460161.500000000, A.D. 2023-Aug-05 00:00:00.0000, -9.433135235547367E+07, -4.614553703386514E+08, 1.092813120048609E+08,
2460168.500000000, A.D. 2023-Aug-12 00:00:00.0000, -8.460212963223603E+07, -4.614795341278169E+08, 1.079910139363526E+08,
2460175.500000000, A.D. 2023-Aug-19 00:00:00.0000, -7.483617008676395E+07, -4.613029463849772E+08, 1.066537362327222E+08,
2460182.500000000, A.D. 2023-Aug-26 00:00:00.0000, -6.503729679777547E+07, -4.609230515398030E+08, 1.052694516324200E+08,
2460189.500000000, A.D. 2023-Sep-02 00:00:00.0000, -5.520944924444389E+07, -4.603373192343808E+08, 1.038381535963263E+08,
2460196.500000000, A.D. 2023-Sep-09 00:00:00.0000, -4.535668629446711E+07, -4.595432480683674E+08, 1.023598574602241E+08,
2460203.500000000, A.D. 2023-Sep-16 00:00:00.0000, -3.548318899505149E+07, -4.585383697688717E+08, 1.008346016072536E+08,
2460210.500000000, A.D. 2023-Sep-23 00:00:00.0000, -2.559326273884542E+07, -4.573202535102836E+08, 9.926244864666998E+07,
2460217.500000000, A.D. 2023-Sep-30 00:00:00.0000, -1.569133913173732E+07, -4.558865092052448E+08, 9.764348672822973E+07,
2460224.500000000, A.D. 2023-Oct-07 00:00:00.0000, -5.781979902176884E+06, -4.542347903208320E+08, 9.597783116414316E+07,
2460231.500000000, A.D. 2023-Oct-14 00:00:00.0000, 4.130118204129477E+06, -4.523627995441377E+08, 9.426562599252374E+07,
2460238.500000000, A.D. 2023-Oct-21 00:00:00.0000, 1.404012079081088E+07, -4.502682957066743E+08, 9.250704531757061E+07,
2460245.500000000, A.D. 2023-Oct-28 00:00:00.0000, 2.394305403338082E+07, -4.479490997199807E+08, 9.070229474234644E+07,
2460252.500000000, A.D. 2023-Nov-04 00:00:00.0000, 3.383380252811272E+07, -4.454031003044182E+08, 8.885161294589451E+07,
2460259.500000000, A.D. 2023-Nov-11 00:00:00.0000, 4.370710696704227E+07, -4.426282601218014E+08, 8.695527333892280E+07,
2460266.500000000, A.D. 2023-Nov-18 00:00:00.0000, 5.355756188273927E+07, -4.396226223861344E+08, 8.501358577170299E+07,
2460273.500000000, A.D. 2023-Nov-25 00:00:00.0000, 6.337961356192534E+07, -4.363843179388548E+08, 8.302689828780077E+07,
2460280.500000000, A.D. 2023-Dec-02 00:00:00.0000, 7.316755818477604E+07, -4.329115728077640E+08, 8.099559891805784E+07,
2460287.500000000, A.D. 2023-Dec-09 00:00:00.0000, 8.291554029879607E+07, -4.292027163157663E+08, 7.892011750042619E+07,
2460294.500000000, A.D. 2023-Dec-16 00:00:00.0000, 9.261755194792609E+07, -4.252561897332325E+08, 7.680092749749970E+07,
2460301.500000000, A.D. 2023-Dec-23 00:00:00.0000, 1.022674328402015E+08, -4.210705547915562E+08, 7.463854783252640E+07,
2460308.500000000, A.D. 2023-Dec-30 00:00:00.0000, 1.118588702502763E+08, -4.166445010113052E+08, 7.243354494813907E+07,
2460315.500000000, A.D. 2024-Jan-06 00:00:00.0000, 1.213853969230403E+08, -4.119768542047591E+08, 7.018653505164187E+07,
2460322.500000000, A.D. 2024-Jan-13 00:00:00.0000, 1.308403901929868E+08, -4.070665879558770E+08, 6.789818610139993E+07,
2460329.500000000, A.D. 2024-Jan-20 00:00:00.0000, 1.402170735875292E+08, -4.019128349879122E+08, 6.556921966713537E+07,
2460336.500000000, A.D. 2024-Jan-27 00:00:00.0000, 1.495085189316624E+08, -3.965148977586436E+08, 6.320041289574061E+07,
2460343.500000000, A.D. 2024-Feb-03 00:00:00.0000, 1.587076485733254E+08, -3.908722592199758E+08, 6.079260053544925E+07,
2460350.500000000, A.D. 2024-Feb-10 00:00:00.0000, 1.678072380562993E+08, -3.849845940170435E+08, 5.834667695910548E+07,
2460357.500000000, A.D. 2024-Feb-17 00:00:00.0000, 1.767999194301114E+08, -3.788517800986317E+08, 5.586359816333804E+07,
2460364.500000000, A.D. 2024-Feb-24 00:00:00.0000, 1.856781852843761E+08, -3.724739106989005E+08, 5.334438372914323E+07,
2460371.500000000, A.D. 2024-Mar-02 00:00:00.0000, 1.944343935887961E+08, -3.658513066919311E+08, 5.079011872468139E+07,
2460378.500000000, A.D. 2024-Mar-09 00:00:00.0000, 2.030607735297561E+08, -3.589845293447107E+08, 4.820195551718841E+07,
2460385.500000000, A.D. 2024-Mar-16 00:00:00.0000, 2.115494327907554E+08, -3.518743932277226E+08, 4.558111545740177E+07,
2460392.500000000, A.D. 2024-Mar-23 00:00:00.0000, 2.198923662242470E+08, -3.445219781237018E+08, 4.292889051884750E+07,
2460399.500000000, A.D. 2024-Mar-30 00:00:00.0000, 2.280814637237480E+08, -3.369286399030446E+08, 4.024664507610962E+07,
2460406.500000000, A.D. 2024-Apr-06 00:00:00.0000, 2.361085176014413E+08, -3.290960236668014E+08, 3.753581750292934E+07,
2460413.500000000, A.D. 2024-Apr-13 00:00:00.0000, 2.439652330710154E+08, -3.210260782483555E+08, 3.479792131205150E+07,
2460420.500000000, A.D. 2024-Apr-20 00:00:00.0000, 2.516432409287542E+08, -3.127210693207907E+08, 3.203454612203181E+07,
2460427.500000000, A.D. 2024-Apr-27 00:00:00.0000, 2.591341109542125E+08, -3.041835915882735E+08, 2.924735852224505E+07,
2460434.500000000, A.D. 2024-May-04 00:00:00.0000, 2.664293661493537E+08, -2.954165806726815E+08, 2.643810274704158E+07,
2460441.500000000, A.D. 2024-May-11 00:00:00.0000, 2.735204980781403E+08, -2.864233246960981E+08, 2.360860110430542E+07,
2460448.500000000, A.D. 2024-May-18 00:00:00.0000, 2.803989834042029E+08, -2.772074754282725E+08, 2.076075412751903E+07,
2460455.500000000, A.D. 2024-May-25 00:00:00.0000, 2.870563016574695E+08, -2.677730588895778E+08, 1.789654042308065E+07,
2460462.500000000, A.D. 2024-Jun-01 00:00:00.0000, 2.934839542847666E+08, -2.581244853431798E+08, 1.501801617724861E+07,
2460469.500000000, A.D. 2024-Jun-08 00:00:00.0000, 2.996734852146186E+08, -2.482665585689356E+08, 1.212731427327304E+07,
2460476.500000000, A.D. 2024-Jun-15 00:00:00.0000, 3.056165033088249E+08, -2.382044837394751E+08, 9.226643002973035E+06,
2460483.500000000, A.D. 2024-Jun-22 00:00:00.0000, 3.113047056556558E+08, -2.279438725883785E+08, 6.318284538925067E+06,
2460490.500000000, A.D. 2024-Jun-29 00:00:00.0000, 3.167298995253617E+08, -2.174907475550453E+08, 3.404593192065865E+06,
2460497.500000000, A.D. 2024-Jul-06 00:00:00.0000, 3.218840255566636E+08, -2.068515472373244E+08, 4.879929905758500E+05,
2460504.500000000, A.D. 2024-Jul-13 00:00:00.0000, 3.267591840321941E+08, -1.960331301878180E+08, -2.429025384783238E+06,
2460511.500000000, A.D. 2024-Jul-20 00:00:00.0000, 3.313476621504959E+08, -1.850427757704554E+08, -5.343908046398431E+06,
2460518.500000000, A.D. 2024-Jul-27 00:00:00.0000, 3.356419615138172E+08, -1.738881829084200E+08, -8.254041755038582E+06,
2460525.500000000, A.D. 2024-Aug-03 00:00:00.0000, 3.396348259616157E+08, -1.625774669776196E+08, -1.115675824670421E+07,
2460532.500000000, A.D. 2024-Aug-10 00:00:00.0000, 3.433192697549476E+08, -1.511191547395688E+08, -1.404933904880975E+07,
2460539.500000000, A.D. 2024-Aug-17 00:00:00.0000, 3.466886059815297E+08, -1.395221771943729E+08, -1.692902078562041E+07,
2460546.500000000, A.D. 2024-Aug-24 00:00:00.0000, 3.497364750152853E+08, -1.277958602942948E+08, -1.979300096945209E+07,
2460553.500000000, A.D. 2024-Aug-31 00:00:00.0000, 3.524568729355060E+08, -1.159499135154994E+08, -2.263844427970788E+07,
2460560.500000000, A.D. 2024-Sep-07 00:00:00.0000, 3.548441800454757E+08, -1.039944161157557E+08, -2.546248933305111E+07,
2460567.500000000, A.D. 2024-Sep-14 00:00:00.0000, 3.568931893418822E+08, -9.193980005570538E+07, -2.826225584438706E+07,
2460574.500000000, A.D. 2024-Sep-21 00:00:00.0000, 3.585991326707142E+08, -7.979682917111331E+07, -3.103485192585444E+07,
2460581.500000000, A.D. 2024-Sep-28 00:00:00.0000, 3.599577038409617E+08, -6.757657785340542E+07, -3.377738170437326E+07,
2460588.500000000, A.D. 2024-Oct-05 00:00:00.0000, 3.609650821190306E+08, -5.529040929129754E+07, -3.648695354976791E+07,
2460595.500000000, A.D. 2024-Oct-12 00:00:00.0000, 3.616179555016593E+08, -4.294995037473830E+07, -3.916068858683945E+07,
2460602.500000000, A.D. 2024-Oct-19 00:00:00.0000, 3.619135417839484E+08, -3.056706364439432E+07, -4.179572929822776E+07,
2460609.500000000, A.D. 2024-Oct-26 00:00:00.0000, 3.618496071671279E+08, -1.815381723043676E+07, -4.438924822155289E+07,
2460616.500000000, A.D. 2024-Nov-02 00:00:00.0000, 3.614244824532573E+08, -5.722453099102853E+06, -4.693845671358000E+07,
2460623.500000000, A.D. 2024-Nov-09 00:00:00.0000, 3.606370767308002E+08, 6.714646217602734E+06, -4.944061372239701E+07,
2460630.500000000, A.D. 2024-Nov-16 00:00:00.0000, 3.594868884061549E+08, 1.914499218892062E+07, -5.189303450158421E+07,
2460637.500000000, A.D. 2024-Nov-23 00:00:00.0000, 3.579740134825900E+08, 3.155602585599815E+07, -5.429309920525648E+07,
2460644.500000000, A.D. 2024-Nov-30 00:00:00.0000, 3.560991511760702E+08, 4.393515409928094E+07, -5.663826131664492E+07,
2460651.500000000, A.D. 2024-Dec-07 00:00:00.0000, 3.538636071935180E+08, 5.626978674229835E+07, -5.892605584368944E+07,
2460658.500000000, A.D. 2024-Dec-14 00:00:00.0000, 3.512692939193232E+08, 6.854737542872530E+07, -6.115410704758042E+07,
2460665.500000000, A.D. 2024-Dec-21 00:00:00.0000, 3.483187251684635E+08, 8.075545274349216E+07, -6.332013552626769E+07,
2460672.500000000, A.D. 2024-Dec-28 00:00:00.0000, 3.450150074961767E+08, 9.288166831622465E+07, -6.542196501592436E+07,
2460679.500000000, A.D. 2025-Jan-04 00:00:00.0000, 3.413618307104788E+08, 1.049138239899638E+08, -6.745752889893301E+07,
2460686.500000000, A.D. 2025-Jan-11 00:00:00.0000, 3.373634558523128E+08, 1.168399094290312E+08, -6.942487606705867E+07,
2460693.500000000, A.D. 2025-Jan-18 00:00:00.0000, 3.330246998472360E+08, 1.286481369694272E+08, -7.132217608954212E+07,
2460700.500000000, A.D. 2025-Jan-25 00:00:00.0000, 3.283509172213363E+08, 1.403269749728249E+08, -7.314772371259825E+07,
2460707.500000000, A.D. 2025-Feb-01 00:00:00.0000, 3.233479792457576E+08, 1.518651794090919E+08, -7.489994268239909E+07,
2460714.500000000, A.D. 2025-Feb-08 00:00:00.0000, 3.180222507671866E+08, 1.632518234656829E+08, -7.657738887515497E+07,
$$EOE